{"fetched_at":"2026-07-15T17:46:48.171Z","source":"https://celestrak.org/NORAD/elements/gp.php?GROUP=planet&FORMAT=JSON","constellation":"superdove","records":[{"OBJECT_NAME":"FLOCK 4Q-16","OBJECT_ID":"2023-174R","EPOCH":"2026-07-15T04:32:19.295808","CLASSIFICATION_TYPE":"U","MEAN_MOTION":15.50369895,"ECCENTRICITY":0.0006837,"INCLINATION":97.383,"RA_OF_ASC_NODE":284.9691,"ARG_OF_PERICENTER":77.2687,"MEAN_ANOMALY":282.9328,"EPHEMERIS_TYPE":0,"NORAD_CAT_ID":58271,"ELEMENT_SET_NO":999,"REV_AT_EPOCH":14991,"BSTAR":0.00023517,"MEAN_MOTION_DOT":0.00013272,"MEAN_MOTION_DDOT":0},{"OBJECT_NAME":"FLOCK 4Q-11","OBJECT_ID":"2023-174T","EPOCH":"2026-07-15T05:26:23.627904","CLASSIFICATION_TYPE":"U","MEAN_MOTION":15.50876017,"ECCENTRICITY":0.0006312,"INCLINATION":97.3866,"RA_OF_ASC_NODE":285.6436,"ARG_OF_PERICENTER":71.2437,"MEAN_ANOMALY":288.9499,"EPHEMERIS_TYPE":0,"NORAD_CAT_ID":58273,"ELEMENT_SET_NO":999,"REV_AT_EPOCH":14993,"BSTAR":0.00029048,"MEAN_MOTION_DOT":0.00016718,"MEAN_MOTION_DDOT":0},{"OBJECT_NAME":"FLOCK 4Q-28","OBJECT_ID":"2023-174AA","EPOCH":"2026-07-15T05:09:45.345024","CLASSIFICATION_TYPE":"U","MEAN_MOTION":15.56766886,"ECCENTRICITY":0.0004788,"INCLINATION":97.3889,"RA_OF_ASC_NODE":288.3675,"ARG_OF_PERICENTER":64.2575,"MEAN_ANOMALY":295.9173,"EPHEMERIS_TYPE":0,"NORAD_CAT_ID":58280,"ELEMENT_SET_NO":999,"REV_AT_EPOCH":15010,"BSTAR":0.00027195,"MEAN_MOTION_DOT":0.00019378,"MEAN_MOTION_DDOT":0},{"OBJECT_NAME":"FLOCK 4Q-27","OBJECT_ID":"2023-174AC","EPOCH":"2026-07-15T05:12:20.229984","CLASSIFICATION_TYPE":"U","MEAN_MOTION":15.56961137,"ECCENTRICITY":0.0004,"INCLINATION":97.3816,"RA_OF_ASC_NODE":287.776,"ARG_OF_PERICENTER":69.21,"MEAN_ANOMALY":290.9584,"EPHEMERIS_TYPE":0,"NORAD_CAT_ID":58282,"ELEMENT_SET_NO":999,"REV_AT_EPOCH":15011,"BSTAR":0.00028867,"MEAN_MOTION_DOT":0.00020725,"MEAN_MOTION_DDOT":0},{"OBJECT_NAME":"FLOCK 4Q-7","OBJECT_ID":"2023-174BQ","EPOCH":"2026-07-15T04:05:59.290368","CLASSIFICATION_TYPE":"U","MEAN_MOTION":15.57365332,"ECCENTRICITY":0.0004567,"INCLINATION":97.392,"RA_OF_ASC_NODE":288.6472,"ARG_OF_PERICENTER":42.3286,"MEAN_ANOMALY":317.832,"EPHEMERIS_TYPE":0,"NORAD_CAT_ID":58318,"ELEMENT_SET_NO":999,"REV_AT_EPOCH":15010,"BSTAR":0.000332,"MEAN_MOTION_DOT":0.00024226,"MEAN_MOTION_DDOT":0},{"OBJECT_NAME":"FLOCK 4Q-2","OBJECT_ID":"2023-174BS","EPOCH":"2026-07-15T05:04:33.041856","CLASSIFICATION_TYPE":"U","MEAN_MOTION":15.50840582,"ECCENTRICITY":0.0004812,"INCLINATION":97.3848,"RA_OF_ASC_NODE":285.3404,"ARG_OF_PERICENTER":51.4991,"MEAN_ANOMALY":308.6692,"EPHEMERIS_TYPE":0,"NORAD_CAT_ID":58320,"ELEMENT_SET_NO":999,"REV_AT_EPOCH":14994,"BSTAR":0.00028015,"MEAN_MOTION_DOT":0.00016093,"MEAN_MOTION_DDOT":0},{"OBJECT_NAME":"FLOCK 4Q-9","OBJECT_ID":"2023-174BU","EPOCH":"2026-07-15T03:55:42.161952","CLASSIFICATION_TYPE":"U","MEAN_MOTION":15.51348139,"ECCENTRICITY":0.0005612,"INCLINATION":97.386,"RA_OF_ASC_NODE":285.4029,"ARG_OF_PERICENTER":50.7992,"MEAN_ANOMALY":309.3758,"EPHEMERIS_TYPE":0,"NORAD_CAT_ID":58322,"ELEMENT_SET_NO":999,"REV_AT_EPOCH":14992,"BSTAR":0.00030206,"MEAN_MOTION_DOT":0.00017682,"MEAN_MOTION_DDOT":0},{"OBJECT_NAME":"FLOCK 4Q-4","OBJECT_ID":"2023-174BZ","EPOCH":"2026-07-15T04:16:11.760096","CLASSIFICATION_TYPE":"U","MEAN_MOTION":15.49858727,"ECCENTRICITY":0.0005738,"INCLINATION":97.3834,"RA_OF_ASC_NODE":284.5321,"ARG_OF_PERICENTER":74.5785,"MEAN_ANOMALY":285.6099,"EPHEMERIS_TYPE":0,"NORAD_CAT_ID":58327,"ELEMENT_SET_NO":999,"REV_AT_EPOCH":14989,"BSTAR":0.00025443,"MEAN_MOTION_DOT":0.00014107,"MEAN_MOTION_DDOT":0},{"OBJECT_NAME":"FLOCK 4Q-13","OBJECT_ID":"2023-174CA","EPOCH":"2026-07-15T03:54:41.008032","CLASSIFICATION_TYPE":"U","MEAN_MOTION":15.52883906,"ECCENTRICITY":0.0005905,"INCLINATION":97.4011,"RA_OF_ASC_NODE":287.8215,"ARG_OF_PERICENTER":55.7819,"MEAN_ANOMALY":304.3992,"EPHEMERIS_TYPE":0,"NORAD_CAT_ID":58328,"ELEMENT_SET_NO":999,"REV_AT_EPOCH":15001,"BSTAR":0.0002489,"MEAN_MOTION_DOT":0.00015374,"MEAN_MOTION_DDOT":0},{"OBJECT_NAME":"FLOCK 4BE-18","OBJECT_ID":"2024-149N","EPOCH":"2026-07-15T04:10:27.554592","CLASSIFICATION_TYPE":"U","MEAN_MOTION":15.4271079,"ECCENTRICITY":0.0005058,"INCLINATION":97.3734,"RA_OF_ASC_NODE":280.2124,"ARG_OF_PERICENTER":145.2938,"MEAN_ANOMALY":214.864,"EPHEMERIS_TYPE":0,"NORAD_CAT_ID":60480,"ELEMENT_SET_NO":999,"REV_AT_EPOCH":10662,"BSTAR":0.00017784,"MEAN_MOTION_DOT":0.00007676,"MEAN_MOTION_DDOT":0},{"OBJECT_NAME":"FLOCK 4BE-7","OBJECT_ID":"2024-149P","EPOCH":"2026-07-15T04:58:12.536256","CLASSIFICATION_TYPE":"U","MEAN_MOTION":15.41454885,"ECCENTRICITY":0.0004283,"INCLINATION":97.3758,"RA_OF_ASC_NODE":279.5363,"ARG_OF_PERICENTER":148.9094,"MEAN_ANOMALY":211.2407,"EPHEMERIS_TYPE":0,"NORAD_CAT_ID":60481,"ELEMENT_SET_NO":999,"REV_AT_EPOCH":10656,"BSTAR":0.00031514,"MEAN_MOTION_DOT":0.00013116,"MEAN_MOTION_DDOT":0},{"OBJECT_NAME":"FLOCK 4BE-36","OBJECT_ID":"2024-149U","EPOCH":"2026-07-15T03:07:48.731232","CLASSIFICATION_TYPE":"U","MEAN_MOTION":15.43541308,"ECCENTRICITY":0.0004757,"INCLINATION":97.3746,"RA_OF_ASC_NODE":280.9088,"ARG_OF_PERICENTER":153.1208,"MEAN_ANOMALY":207.0287,"EPHEMERIS_TYPE":0,"NORAD_CAT_ID":60486,"ELEMENT_SET_NO":999,"REV_AT_EPOCH":10666,"BSTAR":0.00024534,"MEAN_MOTION_DOT":0.00010928,"MEAN_MOTION_DDOT":0},{"OBJECT_NAME":"FLOCK 4BE-25","OBJECT_ID":"2024-149V","EPOCH":"2026-07-15T04:08:36.376800","CLASSIFICATION_TYPE":"U","MEAN_MOTION":15.39544555,"ECCENTRICITY":0.0003547,"INCLINATION":97.3799,"RA_OF_ASC_NODE":279.5254,"ARG_OF_PERICENTER":142.3173,"MEAN_ANOMALY":217.8322,"EPHEMERIS_TYPE":0,"NORAD_CAT_ID":60487,"ELEMENT_SET_NO":999,"REV_AT_EPOCH":10654,"BSTAR":0.00021283,"MEAN_MOTION_DOT":0.00008283,"MEAN_MOTION_DDOT":0},{"OBJECT_NAME":"FLOCK 4BE-31","OBJECT_ID":"2024-149W","EPOCH":"2026-07-14T16:20:36.480192","CLASSIFICATION_TYPE":"U","MEAN_MOTION":15.45144054,"ECCENTRICITY":0.00037594,"INCLINATION":97.3799,"RA_OF_ASC_NODE":281.3946,"ARG_OF_PERICENTER":152.495,"MEAN_ANOMALY":207.6499,"EPHEMERIS_TYPE":0,"NORAD_CAT_ID":60488,"ELEMENT_SET_NO":999,"REV_AT_EPOCH":10662,"BSTAR":0.00028549786,"MEAN_MOTION_DOT":0.00013445,"MEAN_MOTION_DDOT":0},{"OBJECT_NAME":"FLOCK 4BE-20","OBJECT_ID":"2024-149X","EPOCH":"2026-07-15T03:35:39.263136","CLASSIFICATION_TYPE":"U","MEAN_MOTION":15.38811701,"ECCENTRICITY":0.0005036,"INCLINATION":97.3694,"RA_OF_ASC_NODE":278.3115,"ARG_OF_PERICENTER":154.4254,"MEAN_ANOMALY":205.7241,"EPHEMERIS_TYPE":0,"NORAD_CAT_ID":60489,"ELEMENT_SET_NO":999,"REV_AT_EPOCH":10651,"BSTAR":0.0002332,"MEAN_MOTION_DOT":0.0000887,"MEAN_MOTION_DDOT":0},{"OBJECT_NAME":"FLOCK 4BE-23","OBJECT_ID":"2024-149Y","EPOCH":"2026-07-15T03:32:35.251008","CLASSIFICATION_TYPE":"U","MEAN_MOTION":15.38363903,"ECCENTRICITY":0.0004651,"INCLINATION":97.3781,"RA_OF_ASC_NODE":278.6996,"ARG_OF_PERICENTER":156.8331,"MEAN_ANOMALY":203.3125,"EPHEMERIS_TYPE":0,"NORAD_CAT_ID":60490,"ELEMENT_SET_NO":999,"REV_AT_EPOCH":10649,"BSTAR":0.00020909,"MEAN_MOTION_DOT":0.00007828,"MEAN_MOTION_DDOT":0}]}
