FLOCK 4Q-16             
1 58271U 23174R   26196.18911222  .00013272  00000+0  23517-3 0  9995
2 58271  97.3830 284.9691 0006837  77.2687 282.9328 15.50369895149914
FLOCK 4Q-11             
1 58273U 23174T   26196.22666236  .00016718  00000+0  29048-3 0  9997
2 58273  97.3866 285.6436 0006312  71.2437 288.9499 15.50876017149931
FLOCK 4Q-28             
1 58280U 23174AA  26196.21510816  .00019378  00000+0  27195-3 0  9992
2 58280  97.3889 288.3675 0004788  64.2575 295.9173 15.56766886150105
FLOCK 4Q-27             
1 58282U 23174AC  26196.21690081  .00020725  00000+0  28867-3 0  9992
2 58282  97.3816 287.7760 0004000  69.2100 290.9584 15.56961137150119
FLOCK 4Q-7              
1 58318U 23174BQ  26196.17082512  .00024226  00000+0  33200-3 0  9998
2 58318  97.3920 288.6472 0004567  42.3286 317.8320 15.57365332150102
FLOCK 4Q-2              
1 58320U 23174BS  26196.21149354  .00016093  00000+0  28015-3 0  9995
2 58320  97.3848 285.3404 0004812  51.4991 308.6692 15.50840582149948
FLOCK 4Q-9              
1 58322U 23174BU  26196.16368243  .00017682  00000+0  30206-3 0  9991
2 58322  97.3860 285.4029 0005612  50.7992 309.3758 15.51348139149921
FLOCK 4Q-4              
1 58327U 23174BZ  26196.17791389  .00014107  00000+0  25443-3 0  9994
2 58327  97.3834 284.5321 0005738  74.5785 285.6099 15.49858727149891
FLOCK 4Q-13             
1 58328U 23174CA  26196.16297463  .00015374  00000+0  24890-3 0  9990
2 58328  97.4011 287.8215 0005905  55.7819 304.3992 15.52883906150011
FLOCK 4BE-18            
1 60480U 24149N   26196.17393003  .00007676  00000+0  17784-3 0  9993
2 60480  97.3734 280.2124 0005058 145.2938 214.8640 15.42710790106628
FLOCK 4BE-7             
1 60481U 24149P   26196.20708954  .00013116  00000+0  31514-3 0  9996
2 60481  97.3758 279.5363 0004283 148.9094 211.2407 15.41454885106567
FLOCK 4BE-36            
1 60486U 24149U   26196.13042513  .00010928  00000+0  24534-3 0  9997
2 60486  97.3746 280.9088 0004757 153.1208 207.0287 15.43541308106669
FLOCK 4BE-25            
1 60487U 24149V   26196.17264325  .00008283  00000+0  21283-3 0  9998
2 60487  97.3799 279.5254 0003547 142.3173 217.8322 15.39544555106542
FLOCK 4BE-31            
1 60488U 24149W   26195.68097778  .00013445  00000+0  28550-3 0  9990
2 60488  97.3799 281.3946 0003759 152.4950 207.6499 15.45144054106620
FLOCK 4BE-20            
1 60489U 24149X   26196.14975999  .00008870  00000+0  23320-3 0  9999
2 60489  97.3694 278.3115 0005036 154.4254 205.7241 15.38811701106512
FLOCK 4BE-23            
1 60490U 24149Y   26196.14763022  .00007828  00000+0  20909-3 0  9995
2 60490  97.3781 278.6996 0004651 156.8331 203.3125 15.38363903106493
